[{"OBJECT_NAME":"STARLINK-35032","OBJECT_ID":"2025-191D","EPOCH":"2026-03-09T14:09:35.602560","MEAN_MOTION":15.05647823,"ECCENTRICITY":0.0001986,"INCLINATION":97.6027,"RA_OF_ASC_NODE":301.4143,"ARG_OF_PERICENTER":89.3469,"MEAN_ANOMALY":270.7985,"EPHEMERIS_TYPE":0,"CLASSIFICATION_TYPE":"U","NORAD_CAT_ID":65382,"ELEMENT_SET_NO":999,"REV_AT_EPOCH":3025,"BSTAR":0.0008083,"MEAN_MOTION_DOT":0.00011621,"MEAN_MOTION_DDOT":0},{"OBJECT_NAME":"FENGYUN 1C DEB","OBJECT_ID":"1999-025CJB","EPOCH":"2026-03-04T10:30:16.287264","MEAN_MOTION":14.84272597,"ECCENTRICITY":0.00915644,"INCLINATION":98.0869,"RA_OF_ASC_NODE":145.0566,"ARG_OF_PERICENTER":112.3308,"MEAN_ANOMALY":248.7643,"EPHEMERIS_TYPE":0,"CLASSIFICATION_TYPE":"U","NORAD_CAT_ID":31837,"ELEMENT_SET_NO":999,"REV_AT_EPOCH":99570,"BSTAR":0.0020173845,"MEAN_MOTION_DOT":0.00018196,"MEAN_MOTION_DDOT":0}]
